#dV2023  2 17 10  0  0.00000000    1682       CTS   FIT  GFZ
## 2249 468000.00000000    30.00000000 59992 0.4166666666667
+    1   L64  0  0  0  0  0  0  0  0  0  0  0  0  0  0  0  0
+          0  0  0  0  0  0  0  0  0  0  0  0  0  0  0  0  0
+          0  0  0  0  0  0  0  0  0  0  0  0  0  0  0  0  0
+          0  0  0  0  0  0  0  0  0  0  0  0  0  0  0  0  0
+          0  0  0  0  0  0  0  0  0  0  0  0  0  0  0  0  0
++         0  0  0  0  0  0  0  0  0  0  0  0  0  0  0  0  0
++         0  0  0  0  0  0  0  0  0  0  0  0  0  0  0  0  0
++         0  0  0  0  0  0  0  0  0  0  0  0  0  0  0  0  0
++         0  0  0  0  0  0  0  0  0  0  0  0  0  0  0  0  0
++         0  0  0  0  0  0  0  0  0  0  0  0  0  0  0  0  0
%c L  cc GPS ccc cccc cccc cccc cccc ccccc ccccc ccccc ccccc
%c cc cc ccc ccc cccc cccc cccc cccc ccccc ccccc ccccc ccccc
%f  0.0000000  0.000000000  0.00000000000  0.000000000000000
%f  0.0000000  0.000000000  0.00000000000  0.000000000000000
%i    0    0    0    0      0      0      0      0         0
%i    0    0    0    0      0      0      0      0         0
/* CCCCCCCCCCCCCCCCCCCCCCCCCCCCCCCCCCCCCCCCCCCCCCCCCCCCCCCCCCCCCCCCCCCCCCCCCCCCC
/* C                             GFZ RSO-ORBIT                                 C
/* C DOI: https://doi.org/10.5880/GFZ_ORBIT/RSO/L64_G_v02                      C
/* C                                                                           C
/* C DORIS        RMS: not applicable                                          C
/* C GNSS-E Code  RMS: not applicable                                          C
/* C GNSS-E Phase RMS: not applicable                                          C
/* C GNSS-G Code  RMS:  48.930 [cm]   Obs.acc.:     14211 Obs.eli.:       984  C
/* C GNSS-G Phase RMS:   4.118 [mm]   Obs.acc.:     14211 Obs.eli.:       984  C
/* C SLR          RMS:   1.842 [cm]   Obs.acc.:        59 Obs.eli.:         0  C
/* C                                                                           C
/* CCCCCCCCCCCCCCCCCCCCCCCCCCCCCCCCCCCCCCCCCCCCCCCCCCCCCCCCCCCCCCCCCCCCCCCCCCCCC
*  2023  2 17 18 30  0.00000000
PL64   1983.111139  -3572.371903  -5544.205161    491.034034
VL64  29016.198838 -53772.100217  45042.816680 999999.999999
*  2023  2 17 18 30 30.00000000
PL64   2068.712911  -3731.900365  -5406.058294    491.494141
VL64  28047.311853 -52569.786597  47046.748986 999999.999999
*  2023  2 17 18 31  0.00000000
PL64   2151.369640  -3887.728685  -5261.975834    491.954228
VL64  27053.056069 -51305.537519  48999.516017 999999.999999
*  2023  2 17 18 31 30.00000000
PL64   2231.007207  -4039.672878  -5112.114514    492.414352
VL64  26034.760270 -49980.579219  50898.968346 999999.999999
*  2023  2 17 18 32  0.00000000
PL64   2307.555512  -4187.552748  -4956.637435    492.874439
VL64  24993.775034 -48596.211048  52743.011124 999999.999999
*  2023  2 17 18 32 30.00000000
PL64   2380.948537  -4331.192102  -4795.713897    493.334512
VL64  23931.470712 -47153.802536  54529.606243 999999.999999
*  2023  2 17 18 33  0.00000000
PL64   2451.124405  -4470.418960  -4629.519228    493.794626
VL64  22849.235527 -45654.792521  56256.773209 999999.999999
*  2023  2 17 18 33 30.00000000
PL64   2518.025423  -4605.065762  -4458.234609    494.254711
VL64  21748.473817 -44100.689364  57922.590910 999999.999999
*  2023  2 17 18 34  0.00000000
PL64   2581.598139  -4734.969578  -4282.046893    494.714798
VL64  20630.604333 -42493.070602  59525.200577 999999.999999
*  2023  2 17 18 34 30.00000000
PL64   2641.793373  -4859.972312  -4101.148410    495.174885
VL64  19497.058476 -40833.581250  61062.808503 999999.999999
*  2023  2 17 18 35  0.00000000
PL64   2698.566256  -4979.920904  -3915.736772    495.634960
VL64  18349.278897 -39123.932351  62533.687992 999999.999999
*  2023  2 17 18 35 30.00000000
PL64   2751.876265  -5094.667521  -3726.014670    496.095062
VL64  17188.718145 -37365.899611  63936.182101 999999.999999
*  2023  2 17 18 36  0.00000000
PL64   2801.687244  -5204.069754  -3532.189652    496.555166
VL64  16016.836950 -35561.321086  65268.706416 999999.999999
*  2023  2 17 18 36 30.00000000
PL64   2847.967433  -5307.990797  -3334.473913    497.015286
VL64  14835.102264 -33712.094860  66529.750857 999999.999999
*  2023  2 17 18 37  0.00000000
PL64   2890.689475  -5406.299629  -3133.084064    497.475380
VL64  13644.985230 -31820.177191  67717.880912 999999.999999
*  2023  2 17 18 37 30.00000000
PL64   2929.830436  -5498.871180  -2928.240903    497.935523
VL64  12447.959753 -29887.581154  68831.738987 999999.999999
*  2023  2 17 18 38  0.00000000
PL64   2965.371801  -5585.586505  -2720.169183    498.395655
VL64  11245.501324 -27916.375169  69870.047019 999999.999999
*  2023  2 17 18 38 30.00000000
PL64   2997.299486  -5666.332941  -2509.097369    498.855823
VL64  10039.084825 -25908.680179  70831.609037 999999.999999
*  2023  2 17 18 39  0.00000000
PL64   3025.603824  -5741.004266  -2295.257391    499.315989
VL64   8830.182444 -23866.666992  71715.311902 999999.999999
*  2023  2 17 18 39 30.00000000
PL64   3050.279563  -5809.500842  -2078.884389    499.776159
VL64   7620.262633 -21792.554932  72520.126967 999999.999999
*  2023  2 17 18 40  0.00000000
PL64   3071.325845  -5871.729761  -1860.216461    500.236363
VL64   6410.787519 -19688.609557  73245.113186 999999.999999
*  2023  2 17 18 40 30.00000000
PL64   3088.746185  -5927.604974  -1639.494394    500.696559
VL64   5203.209278 -17557.139572  73889.418006 999999.999999
*  2023  2 17 18 41  0.00000000
PL64   3102.548439  -5977.047422  -1416.961401    501.156786
VL64   3998.969359 -15400.494459  74452.277195 999999.999999
*  2023  2 17 18 41 30.00000000
PL64   3112.744771  -6019.985152  -1192.862853    501.616995
VL64   2799.498646 -13221.062218  74933.017224 999999.999999
*  2023  2 17 18 42  0.00000000
PL64   3119.351619  -6056.353430   -967.446000    502.077243
VL64   1606.214712 -11021.265608  75331.058037 999999.999999
*  2023  2 17 18 42 30.00000000
PL64   3122.389647  -6086.094834   -740.959693    502.537481
VL64    420.518254  -8803.558098  75645.913345 999999.999999
*  2023  2 17 18 43  0.00000000
PL64   3121.883698  -6109.159347   -513.654102    502.997729
VL64   -756.208848  -6570.420240  75877.190146 999999.999999
*  2023  2 17 18 43 30.00000000
PL64   3117.862726  -6125.504429   -285.780435    503.457984
VL64  -1922.604660  -4324.356670  76024.587770 999999.999999
*  2023  2 17 18 44  0.00000000
PL64   3110.359743  -6135.095088    -57.590666    503.918256
VL64  -3077.327782  -2067.895180  76087.897281 999999.999999
*  2023  2 17 18 44 30.00000000
PL64   3099.411753  -6137.903952    170.662742    504.378514
VL64  -4219.058222    196.414193  76067.003412 999999.999999
*  2023  2 17 18 45  0.00000000
PL64   3085.059684  -6133.911324    398.727128    504.838801
VL64  -5346.499590   2466.002501  75961.886864 999999.999999
*  2023  2 17 18 45 30.00000000
PL64   3067.348316  -6123.105241    626.349915    505.299077
VL64  -6458.381124   4738.285634  75772.624668 999999.999999
*  2023  2 17 18 46  0.00000000
PL64   3046.326202  -6105.481511    853.278902    505.759344
VL64  -7553.459146   7010.667293  75499.391187 999999.999999
*  2023  2 17 18 46 30.00000000
PL64   3022.045581  -6081.043742   1079.262561    506.219618
VL64  -8630.519099   9280.544549  75142.460040 999999.999999
*  2023  2 17 18 47  0.00000000
PL64   2994.562290  -6049.803351   1304.050332    506.679927
VL64  -9688.377764  11545.315381  74702.201841 999999.999999
*  2023  2 17 18 47 30.00000000
PL64   2963.935667  -6011.779556   1527.392905    507.140196
VL64 -10725.884478  13802.380195  74179.079225 999999.999999
*  2023  2 17 18 48  0.00000000
PL64   2930.228453  -5966.999375   1749.042494    507.600511
VL64 -11741.922442  16049.139847  73573.646315 999999.999999
*  2023  2 17 18 48 30.00000000
PL64   2893.506685  -5915.497619   1968.753117    508.060827
VL64 -12735.409271  18282.997870  72886.551110 999999.999999
*  2023  2 17 18 49  0.00000000
PL64   2853.839597  -5857.316877   2186.280879    508.521159
VL64 -13705.297723  20501.366306  72118.538030 999999.999999
*  2023  2 17 18 49 30.00000000
PL64   2811.299505  -5792.507482   2401.384263    508.981488
VL64 -14650.580484  22701.674363  71270.445435 999999.999999
*  2023  2 17 18 50  0.00000000
PL64   2765.961687  -5721.127445   2613.824393    509.441788
VL64 -15570.291406  24881.369080  70343.196914 999999.999999
*  2023  2 17 18 50 30.00000000
PL64   2717.904259  -5643.242420   2823.365296    509.902112
VL64 -16463.501848  27037.911901  69337.803225 999999.999999
*  2023  2 17 18 51  0.00000000
PL64   2667.208068  -5558.925645   3029.774167    510.362461
VL64 -17329.321757  29168.784659  68255.366802 999999.999999
*  2023  2 17 18 51 30.00000000
PL64   2613.956569  -5468.257875   3232.821641    510.822780
VL64 -18166.902428  31271.495062  67097.077808 999999.999999
*  2023  2 17 18 52  0.00000000
PL64   2558.235700  -5371.327303   3432.282054    511.283105
VL64 -18975.437368  33343.578151  65864.211890 999999.999999
*  2023  2 17 18 52 30.00000000
PL64   2500.133755  -5268.229470   3627.933693    511.743447
VL64 -19754.163414  35382.598788  64558.129413 999999.999999
*  2023  2 17 18 53  0.00000000
PL64   2439.741249  -5159.067176   3819.559055    512.203787
VL64 -20502.361654  37386.155024  63180.274688 999999.999999
*  2023  2 17 18 53 30.00000000
PL64   2377.150788  -5043.950370   4006.945093    512.664136
VL64 -21219.358403  39351.882633  61732.174244 999999.999999
*  2023  2 17 18 54  0.00000000
PL64   2312.456930  -4922.996033   4189.883458    513.124488
VL64 -21904.525887  41277.458895  60215.433378 999999.999999
*  2023  2 17 18 54 30.00000000
PL64   2245.756045  -4796.328048   4368.170732    513.584831
VL64 -22557.282288  43160.604757  58631.733019 999999.999999
*  2023  2 17 18 55  0.00000000
PL64   2177.146185  -4664.077070   4541.608648    514.045183
VL64 -23177.090966  44999.086411  56982.827275 999999.999999
EOF
